MALLIGYONG-1            
1 58400U 23179A   24004.15429219  .00005586  00000+0  24856-3 0  9993
2 58400  97.4251 253.3573 0017206 121.5220 238.7700 15.21750278  6623
